{"type": "FeatureCollection", "features": [{"type": "Feature", "properties": {"norad_id": 50032, "name": "COSMOS 1408 DEB", "group": "cosmos-1408-debris", "lat": 13.611199187254128, "lon": 64.58823838706819, "alt_km": 439.4085265800277, "timestamp": "2025-12-08T13:49:32.062952+00:00", "meta": {"OBJECT_NAME": "COSMOS 1408 DEB", "OBJECT_ID": "1982-092RU", "EPOCH": "2025-12-08T05:59:50.233344", "MEAN_MOTION": 15.45625036, "ECCENTRICITY": 0.0014898, "INCLINATION": 82.5644, "RA_OF_ASC_NODE": 63.1103, "ARG_OF_PERICENTER": 225.9875, "MEAN_ANOMALY": 134.0147, "EPHEMERIS_TYPE": 0, "CLASSIFICATION_TYPE": "U", "NORAD_CAT_ID": 50032, "ELEMENT_SET_NO": 999, "REV_AT_EPOCH": 22534, "BSTAR": 0.00014643307, "MEAN_MOTION_DOT": 7.118e-05, "MEAN_MOTION_DDOT": 0}, "tle": {"line1": "1 50032U 82092RU  25342.24988696  .00007118  00000+0  14643-3 0  9996", "line2": "2 50032  82.5644  63.1103 0014898 225.9875 134.0147 15.45625036225346"}}, "geometry": {"type": "Point", "coordinates": [64.58823838706819, 13.611199187254128]}}, {"type": "Feature", "properties": {"norad_id": 50058, "name": "COSMOS 1408 DEB", "group": "cosmos-1408-debris", "lat": -56.90827100750056, "lon": 62.21474728934888, "alt_km": 394.9458474132962, "timestamp": "2025-12-08T13:49:32.062972+00:00", "meta": {"OBJECT_NAME": "COSMOS 1408 DEB", "OBJECT_ID": "1982-092SW", "EPOCH": "2025-12-08T07:55:44.645376", "MEAN_MOTION": 15.63709561, "ECCENTRICITY": 0.0016354, "INCLINATION": 82.6131, "RA_OF_ASC_NODE": 73.955, "ARG_OF_PERICENTER": 114.3465, "MEAN_ANOMALY": 245.9504, "EPHEMERIS_TYPE": 0, "CLASSIFICATION_TYPE": "U", "NORAD_CAT_ID": 50058, "ELEMENT_SET_NO": 999, "REV_AT_EPOCH": 22735, "BSTAR": 0.0004087218, "MEAN_MOTION_DOT": 0.00038485, "MEAN_MOTION_DDOT": 0}, "tle": {"line1": "1 50058U 82092SW  25342.33037784  .00038485  00000+0  40872-3 0  9991", "line2": "2 50058  82.6131  73.9550 0016354 114.3465 245.9504 15.63709561227354"}}, "geometry": {"type": "Point", "coordinates": [62.21474728934888, -56.90827100750056]}}, {"type": "Feature", "properties": {"norad_id": 50404, "name": "COSMOS 1408 DEB", "group": "cosmos-1408-debris", "lat": 81.91090049359066, "lon": -66.10832781739309, "alt_km": 588.0225025633672, "timestamp": "2025-12-08T13:49:32.062986+00:00", "meta": {"OBJECT_NAME": "COSMOS 1408 DEB", "OBJECT_ID": "1982-092ADS", "EPOCH": "2025-12-08T02:18:52.795296", "MEAN_MOTION": 15.12826412, "ECCENTRICITY": 0.01738853, "INCLINATION": 82.2031, "RA_OF_ASC_NODE": 219.7838, "ARG_OF_PERICENTER": 214.9126, "MEAN_ANOMALY": 144.0605, "EPHEMERIS_TYPE": 0, "CLASSIFICATION_TYPE": "U", "NORAD_CAT_ID": 50404, "ELEMENT_SET_NO": 999, "REV_AT_EPOCH": 21123, "BSTAR": 0.0031525673, "MEAN_MOTION_DOT": 0.00081169, "MEAN_MOTION_DDOT": 0}, "tle": {"line1": "1 50404U 82092ADS 25342.09644439  .00081169  00000+0  31526-2 0  9992", "line2": "2 50404  82.2031 219.7838 0173885 214.9126 144.0605 15.12826412211237"}}, "geometry": {"type": "Point", "coordinates": [-66.10832781739309, 81.91090049359066]}}, {"type": "Feature", "properties": {"norad_id": 50621, "name": "COSMOS 1408 DEB", "group": "cosmos-1408-debris", "lat": 68.12485464946548, "lon": 97.47949923167663, "alt_km": 394.4079886516729, "timestamp": "2025-12-08T13:49:32.062998+00:00", "meta": {"OBJECT_NAME": "COSMOS 1408 DEB", "OBJECT_ID": "1982-092ALR", "EPOCH": "2025-12-08T07:21:18.073152", "MEAN_MOTION": 15.56312621, "ECCENTRICITY": 0.00288415, "INCLINATION": 82.5714, "RA_OF_ASC_NODE": 78.7954, "ARG_OF_PERICENTER": 168.5442, "MEAN_ANOMALY": 191.6476, "EPHEMERIS_TYPE": 0, "CLASSIFICATION_TYPE": "U", "NORAD_CAT_ID": 50621, "ELEMENT_SET_NO": 999, "REV_AT_EPOCH": 22181, "BSTAR": 0.00044459454, "MEAN_MOTION_DOT": 0.00031977, "MEAN_MOTION_DDOT": 0}, "tle": {"line1": "1 50621U 82092ALR 25342.30645918  .00031977  00000+0  44459-3 0  9992", "line2": "2 50621  82.5714  78.7954 0028841 168.5442 191.6476 15.56312621221816"}}, "geometry": {"type": "Point", "coordinates": [97.47949923167663, 68.12485464946548]}}]}